NORAD_CAT_ID,OBJECT_NAME,OBJECT_TYPE,EPOCH,MEAN_MOTION,ECCENTRICITY,INCLINATION,RA_OF_ASC_NODE,ARG_OF_PERICENTER,MEAN_ANOMALY,BSTAR,MEAN_MOTION_DOT,MEAN_MOTION_DDOT,TLE_LINE0,TLE_LINE1,TLE_LINE2,SEMIMAJOR_AXIS,PERIOD,APOGEE,PERIGEE,DECAYED
51814.0,STARLINK-3599,PAYLOAD,2022-04-21 14:00:01,15.73230185,0.0001953,53.2128,231.6711,28.869,265.4896,-0.00038213,-0.00053981,0.0,0 STARLINK-3599,1 51814U 22017AY  22111.58334491 -.00053981  00000-0 -38213-3 0  9993,2 51814  53.2128 231.6711 0001953  28.8690 265.4896 15.73230185  3710,6727.809,91.531,350.98800000000006,348.36,0.0
51814.0,STARLINK-3599,PAYLOAD,2022-04-21 22:00:00,15.73207144,0.0002022,53.2123,230.0214,23.7118,359.6134,0.00040128,0.00056093,0.0,0 STARLINK-3599,1 51814U 22017AY  22111.91667824  .00056093  00000-0  40128-3 0  9992,2 51814  53.2123 230.0214 0002022  23.7118 359.6134 15.73207144  3713,6727.875,91.533,351.1,348.379,0.0
51814.0,STARLINK-3599,PAYLOAD,2022-04-22 04:00:01,15.73238782,0.0001851,53.2123,228.7826,26.3483,333.7621,9.9083e-05,0.0001333,0.0,0 STARLINK-3599,1 51814U 22017AY  22112.16668981  .00013330  00000-0  99083-4 0  9997,2 51814  53.2123 228.7826 0001851  26.3483 333.7621 15.73238782  9979,6727.785,91.531,350.895,348.404,0.0
51814.0,STARLINK-3599,PAYLOAD,2022-04-22 12:00:00,15.73263876,0.0002039,53.2124,227.1343,28.7301,60.2738,-0.00051681,-0.00072733,0.0,0 STARLINK-3599,1 51814U 22017AY  22112.50001157 -.00072733  00000-0 -51681-3 0  9996,2 51814  53.2124 227.1343 0002039  28.7301  60.2738 15.73263876 10022,6727.7130000000025,91.529,350.95,348.206,0.0
51814.0,STARLINK-3599,PAYLOAD,2022-04-22 14:00:01,15.73265271,0.0002117,53.2123,226.7224,28.4155,172.8336,-0.00072019,-0.00100786,0.0,0 STARLINK-3599,1 51814U 22017AY  22112.58334491 -.00100786  00000-0 -72019-3 0  9992,2 51814  53.2123 226.7224 0002117  28.4155 172.8336 15.73265271  3718,6727.709,91.529,350.99800000000016,348.15,0.0
51814.0,STARLINK-3599,PAYLOAD,2022-04-23 12:00:00,15.73163046,0.0002248,53.2127,222.1853,26.8865,328.8524,0.00019371,0.0002661,0.0,0 STARLINK-3599,1 51814U 22017AY  22113.50001157  .00026610  00000-0  19371-3 0  9998,2 51814  53.2127 222.1853 0002248  26.8865 328.8524 15.73163046 10183,6728.001,91.535,351.37800000000016,348.353,0.0
51814.0,STARLINK-3599,PAYLOAD,2022-04-23 14:00:01,15.73161168,0.0002335,53.2125,221.7735,25.9406,82.0206,0.00033905,0.00047155,0.0,0 STARLINK-3599,1 51814U 22017AY  22113.58334491  .00047155  00000-0  33905-3 0  9992,2 51814  53.2125 221.7735 0002335  25.9406  82.0206 15.73161168  3689,6728.005999999999,91.535,351.44199999999995,348.3,0.0
51814.0,STARLINK-3599,PAYLOAD,2022-04-23 20:00:01,15.73229225,0.0002427,53.2122,220.5363,22.8272,61.8136,2.2772e-05,2.579e-05,0.0,0 STARLINK-3599,1 51814U 22017AY  22113.83334491  .00002579  00000-0  22772-4 0  9992,2 51814  53.2122 220.5363 0002427  22.8272  61.8136 15.73229225 10234,6727.812,91.531,351.31,348.0440000000001,0.0
51814.0,STARLINK-3599,PAYLOAD,2022-04-24 14:00:01,15.7322913,0.0002479,53.2124,216.8247,24.0697,350.7476,-0.00010664,-0.00015582,0.0,0 STARLINK-3599,1 51814U 22017AY  22114.58334491 -.00015582  00000-0 -10664-3 0  9991,2 51814  53.2124 216.8247 0002479  24.0697 350.7476 15.73229130  3691,6727.812,91.531,351.345,348.009,0.0
51814.0,STARLINK-3599,PAYLOAD,2022-04-24 20:00:01,15.73256153,0.0002553,53.2122,215.5874,21.7259,329.8034,-0.00074884,-0.00104691,0.0,0 STARLINK-3599,1 51814U 22017AY  22114.83334491 -.00104691  00000-0 -74884-3 0  9993,2 51814  53.2122 215.5874 0002553  21.7259 329.8034 15.73256153 10399,6727.735,91.53,351.3180000000001,347.88199999999995,0.0
51814.0,STARLINK-3599,PAYLOAD,2022-04-25 12:00:00,15.73148037,0.0002634,53.213,212.2877,23.9027,145.4558,-5.2478e-05,-7.965e-05,0.0,0 STARLINK-3599,1 51814U 22017AY  22115.50001157 -.00007965  00000-0 -52478-4 0  9990,2 51814  53.2130 212.2877 0002634  23.9027 145.4558 15.73148037 10497,6728.043000000002,91.536,351.68,348.136,0.0
51814.0,STARLINK-3599,PAYLOAD,2022-04-25 14:00:01,15.73128792,0.0002709,53.2131,211.8758,23.4108,258.1675,0.00028931,0.00040057,0.0,0 STARLINK-3599,1 51814U 22017AY  22115.58334491  .00040057  00000-0  28931-3 0  9991,2 51814  53.2131 211.8758 0002709  23.4108 258.1675 15.73128792  3714,6728.098000000001,91.537,351.786,348.141,0.0
51814.0,STARLINK-3599,PAYLOAD,2022-04-25 20:00:01,15.73177095,0.0002729,53.2126,210.6383,20.7331,237.4993,0.00038263,0.00053375,0.0,0 STARLINK-3599,1 51814U 22017AY  22115.83334491  .00053375  00000-0  38263-3 0  9995,2 51814  53.2126 210.6383 0002729  20.7331 237.4993 15.73177095 10541,6727.96,91.535,351.662,347.98900000000015,0.0
51814.0,STARLINK-3599,PAYLOAD,2022-04-25 22:00:00,15.73200046,0.0002671,53.2128,210.2254,21.2076,349.2473,0.00017467,0.00023965,0.0,0 STARLINK-3599,1 51814U 22017AY  22115.91667824  .00023965  00000-0  17467-3 0  9998,2 51814  53.2128 210.2254 0002671  21.2076 349.2473 15.73200046  3702,6727.895,91.533,351.557,347.963,0.0
51814.0,STARLINK-3599,PAYLOAD,2022-04-26 12:00:00,15.73224071,0.0002704,53.2128,207.3395,17.5643,58.5424,1.4210999999999992e-05,1.374e-05,0.0,0 STARLINK-3599,1 51814U 22017AY  22116.50001157  .00001374  00000-0  14211-4 0  9990,2 51814  53.2128 207.3395 0002704  17.5643  58.5424 15.73224071 10652,6727.8269999999975,91.532,351.511,347.872,0.0
51814.0,STARLINK-3599,PAYLOAD,2022-04-26 14:00:01,15.73232858,0.0002759,53.213,206.9273,17.0316,171.3771,-0.00011055,-0.00016133,0.0,0 STARLINK-3599,1 51814U 22017AY  22116.58335648 -.00016133  00000-0 -11055-3 0  9996,2 51814  53.2130 206.9273 0002759  17.0316 171.3771 15.73232858  3694,6727.801,91.531,351.523,347.81,0.0
51814.0,STARLINK-3599,PAYLOAD,2022-04-26 22:00:00,15.7323393,0.0002707,53.213,205.2766,15.7548,261.5511,-0.00058561,-0.00082147,0.0,0 STARLINK-3599,1 51814U 22017AY  22116.91667824 -.00082147  00000-0 -58561-3 0  9998,2 51814  53.2130 205.2766 0002707  15.7548 261.5511 15.73233930  3672,6727.7980000000025,91.531,351.485,347.842,0.0
51814.0,STARLINK-3599,PAYLOAD,2022-04-27 12:00:00,15.73169487,0.0002876,53.2133,202.3904,15.7768,327.1728,0.00012199,0.00016513,0.0,0 STARLINK-3599,1 51814U 22017AY  22117.50001157  .00016513  00000-0  12199-3 0  9994,2 51814  53.2133 202.3904 0002876  15.7768 327.1728 15.73169487 10816,6727.982,91.535,351.782,347.912,0.0
51814.0,STARLINK-3599,PAYLOAD,2022-04-27 14:00:01,15.73165902,0.0002948,53.2134,201.9784,14.4541,80.7954,0.0005304999999999,0.00074395,0.0,0 STARLINK-3599,1 51814U 22017AY  22117.58335648  .00074395  00000-0  53050-3 0  9990,2 51814  53.2134 201.9784 0002948  14.4541  80.7954 15.73165902  3669,6727.9919999999975,91.535,351.841,347.874,0.0
51814.0,STARLINK-3599,PAYLOAD,2022-04-27 20:00:01,15.73242302,0.0002958,53.213,200.7406,11.4298,60.4297,-0.0004368,-0.00061604,0.0,0 STARLINK-3599,1 51814U 22017AY  22117.83334491 -.00061604  00000-0 -43680-3 0  9992,2 51814  53.2130 200.7406 0002958  11.4298  60.4297 15.73242302 10865,6727.775,91.531,351.63,347.649,0.0
51814.0,STARLINK-3599,PAYLOAD,2022-04-28 04:00:01,15.73218759,0.0002773,53.2132,199.0895,13.4372,147.4452,0.00029814,0.00041467,0.0,0 STARLINK-3599,1 51814U 22017AY  22118.16668981  .00041467  00000-0  29814-3 0  9999,2 51814  53.2132 199.0895 0002773  13.4372 147.4452 15.73218759 10913,6727.842,91.532,351.57199999999995,347.841,0.0
51814.0,STARLINK-3599,PAYLOAD,2022-04-28 14:00:01,15.73233532,0.0003133,53.2131,197.03,13.9453,348.0939,0.00010496,0.00014156,0.0,0 STARLINK-3599,1 51814U 22017AY  22118.58334491  .00014156  00000-0  10496-3 0  9992,2 51814  53.2131 197.0300 0003133  13.9453 348.0939 15.73233532  3712,6727.8,91.531,351.772,347.557,0.0
51814.0,STARLINK-3599,PAYLOAD,2022-04-28 20:00:01,15.73286379,0.0003068,53.2127,195.7918,10.4469,328.3326,-0.00062489,-0.00087762,0.0,0 STARLINK-3599,1 51814U 22017AY  22118.83334491 -.00087762  00000-0 -62489-3 0  9994,2 51814  53.2127 195.7918 0003068  10.4469 328.3326 15.73286379 11024,6727.649,91.528,351.57800000000015,347.45,0.0
51814.0,STARLINK-3599,PAYLOAD,2022-04-29 12:00:00,15.73189743,0.000325,53.213,192.4931,11.0928,145.5984,-0.00035644,-0.00050342,0.0,0 STARLINK-3599,1 51814U 22017AY  22119.50001157 -.00050342  00000-0 -35644-3 0  9996,2 51814  53.2130 192.4931 0003250  11.0928 145.5984 15.73189743 11124,6727.924,91.534,351.976,347.603,0.0
51814.0,STARLINK-3599,PAYLOAD,2022-04-29 14:00:01,15.7316391,0.0003309,53.2132,192.0811,11.1137,257.8104,-6.2316e-05,-9.348e-05,0.0,0 STARLINK-3599,1 51814U 22017AY  22119.58334491 -.00009348  00000-0 -62316-4 0  9991,2 51814  53.2132 192.0811 0003309  11.1137 257.8104 15.73163910  3701,6727.998000000001,91.535,352.089,347.63699999999994,0.0
51814.0,STARLINK-3599,PAYLOAD,2022-04-29 20:00:01,15.73183482,0.0003292,53.2127,190.8429,11.1759,234.4191,-0.0003907,-0.00055077,0.0,0 STARLINK-3599,1 51814U 22017AY  22119.83334491 -.00055077  00000-0 -39070-3 0  9999,2 51814  53.2127 190.8429 0003292  11.1759 234.4191 15.73183482 11170,6727.941999999999,91.534,352.022,347.592,0.0
51814.0,STARLINK-3599,PAYLOAD,2022-04-29 22:00:00,15.73142811,0.0003191,53.2128,190.43,12.3933,345.4357,0.00019206,0.00026357,0.0,0 STARLINK-3599,1 51814U 22017AY  22119.91667824  .00026357  00000-0  19206-3 0  9993,2 51814  53.2128 190.4300 0003191  12.3933 345.4357 15.73142811  3696,6728.058000000001,91.537,352.07,347.776,0.0
51814.0,STARLINK-3599,PAYLOAD,2022-04-30 04:00:00,15.73173046,0.0003137,53.2128,189.1922,13.4281,321.047,0.00033616,0.00046774,0.0,0 STARLINK-3599,1 51814U 22017AY  22120.16667824  .00046774  00000-0  33616-3 0  9998,2 51814  53.2128 189.1922 0003137  13.4281 321.0470 15.73173046 11238,6727.972,91.535,351.9480000000001,347.726,0.0
51814.0,STARLINK-3599,PAYLOAD,2022-04-30 12:00:00,15.73171978,0.000335,53.2124,187.545,9.8556,53.5117,-0.00042747,-0.00060138,0.0,0 STARLINK-3599,1 51814U 22017AY  22120.50001157 -.00060138  00000-0 -42747-3 0  9994,2 51814  53.2124 187.5450 0003350   9.8556  53.5117 15.73171978 11285,6727.975,91.535,352.094,347.586,0.0
